{
  "norad_id": 60196,
  "name": "STARLINK-31869",
  "history": [
    {
      "epoch": "2026-03-28T19:19:58.317312Z",
      "apogee_km": 475.8117160967613,
      "perigee_km": 474.6406133991686,
      "latitude_deg": -9.820056047946773e-06,
      "longitude_deg": 117.40409540331949,
      "height_km": 476.0236993974123,
      "semi_major_axis_km": 6853.363164747964,
      "eccentricity": 8.544e-05,
      "inclination_deg": 53.1593,
      "raan_deg": 233.6178,
      "arg_perigee_deg": 80.0634,
      "mean_anomaly_deg": 280.0463,
      "mean_motion_rev_day": 15.30196284
    },
    {
      "epoch": "2026-03-29T03:10:14.553696Z",
      "apogee_km": 475.83887862246957,
      "perigee_km": 474.64913167997474,
      "latitude_deg": -3.7614676902374514e-05,
      "longitude_deg": -2.0023657062868634,
      "height_km": 476.0337810628358,
      "semi_major_axis_km": 6853.381005151222,
      "eccentricity": 8.68e-05,
      "inclination_deg": 53.1593,
      "raan_deg": 232.1009,
      "arg_perigee_deg": 79.4628,
      "mean_anomaly_deg": 280.647,
      "mean_motion_rev_day": 15.30190309
    },
    {
      "epoch": "2026-03-30T02:41:02.785056Z",
      "apogee_km": 475.84937276347955,
      "perigee_km": 474.64934481205546,
      "latitude_deg": 3.5796626036070146e-05,
      "longitude_deg": -0.21993536633133573,
      "height_km": 476.04627226501736,
      "semi_major_axis_km": 6853.386358787768,
      "eccentricity": 8.755e-05,
      "inclination_deg": 53.1593,
      "raan_deg": 227.5499,
      "arg_perigee_deg": 80.2487,
      "mean_anomaly_deg": 279.8613,
      "mean_motion_rev_day": 15.30188516
    },
    {
      "epoch": "2026-03-30T15:13:28.663392Z",
      "apogee_km": 475.9341310467007,
      "perigee_km": 474.58099682399734,
      "latitude_deg": 4.0197854580532724e-05,
      "longitude_deg": 168.72982118809261,
      "height_km": 476.10504926790094,
      "semi_major_axis_km": 6853.394563935349,
      "eccentricity": 9.872e-05,
      "inclination_deg": 53.1597,
      "raan_deg": 225.1225,
      "arg_perigee_deg": 85.6826,
      "mean_anomaly_deg": 274.4288,
      "mean_motion_rev_day": 15.30185768
    },
    {
      "epoch": "2026-03-31T14:44:16.219104Z",
      "apogee_km": 476.0880523109763,
      "perigee_km": 474.25410706885214,
      "latitude_deg": 2.5614270833895823e-05,
      "longitude_deg": 170.51490958827077,
      "height_km": 475.94804068150404,
      "semi_major_axis_km": 6853.308079689914,
      "eccentricity": 0.0001338,
      "inclination_deg": 53.1605,
      "raan_deg": 220.5714,
      "arg_perigee_deg": 82.4114,
      "mean_anomaly_deg": 277.7039,
      "mean_motion_rev_day": 15.30214733
    },
    {
      "epoch": "2026-04-01T07:58:51.129408Z",
      "apogee_km": 475.9885078609641,
      "perigee_km": 474.4903597725306,
      "latitude_deg": 2.2994954173126335e-06,
      "longitude_deg": -92.17551253556742,
      "height_km": 476.136603353823,
      "semi_major_axis_km": 6853.376433816747,
      "eccentricity": 0.0001093,
      "inclination_deg": 53.1605,
      "raan_deg": 217.2346,
      "arg_perigee_deg": 89.9085,
      "mean_anomaly_deg": 270.2041,
      "mean_motion_rev_day": 15.3019184
    },
    {
      "epoch": "2026-04-02T07:29:39.830784Z",
      "apogee_km": 475.7872991483928,
      "perigee_km": 474.75915054646066,
      "latitude_deg": -3.8579857050749697e-05,
      "longitude_deg": -90.39383063377713,
      "height_km": 476.21322061095503,
      "semi_major_axis_km": 6853.410224847426,
      "eccentricity": 7.501e-05,
      "inclination_deg": 53.1654,
      "raan_deg": 212.6849,
      "arg_perigee_deg": 94.5349,
      "mean_anomaly_deg": 265.5737,
      "mean_motion_rev_day": 15.30180523
    },
    {
      "epoch": "2026-04-03T16:24:49.575168Z",
      "apogee_km": 476.08660556213636,
      "perigee_km": 474.64325805529825,
      "latitude_deg": -3.839831098091243e-06,
      "longitude_deg": 128.09234344446784,
      "height_km": 476.3169387877949,
      "semi_major_axis_km": 6853.501931808717,
      "eccentricity": 0.0001053,
      "inclination_deg": 53.1603,
      "raan_deg": 206.3136,
      "arg_perigee_deg": 94.2611,
      "mean_anomaly_deg": 265.851,
      "mean_motion_rev_day": 15.3014981
    },
    {
      "epoch": "2026-04-04T14:21:32.444352Z",
      "apogee_km": 475.83474584530086,
      "perigee_km": 474.7258629254511,
      "latitude_deg": 2.7013635626991616e-06,
      "longitude_deg": 153.7649670844035,
      "height_km": 476.30644050667695,
      "semi_major_axis_km": 6853.417304385376,
      "eccentricity": 8.09e-05,
      "inclination_deg": 53.16,
      "raan_deg": 202.0661,
      "arg_perigee_deg": 103.287,
      "mean_anomaly_deg": 256.8221,
      "mean_motion_rev_day": 15.30178152
    },
    {
      "epoch": "2026-04-05T13:52:19.440192Z",
      "apogee_km": 475.93519511431805,
      "perigee_km": 474.6577151182846,
      "latitude_deg": -3.8372012210409575e-05,
      "longitude_deg": 155.55487223504602,
      "height_km": 476.3898936724411,
      "semi_major_axis_km": 6853.433455116301,
      "eccentricity": 9.32e-05,
      "inclination_deg": 53.1605,
      "raan_deg": 197.5175,
      "arg_perigee_deg": 107.7571,
      "mean_anomaly_deg": 252.3531,
      "mean_motion_rev_day": 15.30172743
    },
    {
      "epoch": "2026-04-06T07:06:53.608320Z",
      "apogee_km": 475.83047334586354,
      "perigee_km": 474.65525576668915,
      "latitude_deg": 2.0459880933648082e-05,
      "longitude_deg": -107.13309026382987,
      "height_km": 476.3483627871159,
      "semi_major_axis_km": 6853.379864556276,
      "eccentricity": 8.574e-05,
      "inclination_deg": 53.1606,
      "raan_deg": 194.18,
      "arg_perigee_deg": 110.5998,
      "mean_anomaly_deg": 249.5095,
      "mean_motion_rev_day": 15.30190691
    },
    {
      "epoch": "2026-04-07T11:19:52.139136Z",
      "apogee_km": 475.34438809187395,
      "perigee_km": 475.156879406215,
      "latitude_deg": 2.8508793448925e-05,
      "longitude_deg": -176.9988663598081,
      "height_km": 476.12171355434606,
      "semi_major_axis_km": 6853.387633749045,
      "eccentricity": 1.368e-05,
      "inclination_deg": 53.1602,
      "raan_deg": 188.7169,
      "arg_perigee_deg": 72.3142,
      "mean_anomaly_deg": 287.7874,
      "mean_motion_rev_day": 15.30188089
    },
    {
      "epoch": "2026-04-08T15:32:49.592544Z",
      "apogee_km": 475.70218540978567,
      "perigee_km": 474.79328952590186,
      "latitude_deg": -7.801497242663523e-06,
      "longitude_deg": 113.14212556757535,
      "height_km": 475.99156093669137,
      "semi_major_axis_km": 6853.3847374678435,
      "eccentricity": 6.631e-05,
      "inclination_deg": 53.1597,
      "raan_deg": 183.2561,
      "arg_perigee_deg": 70.0474,
      "mean_anomaly_deg": 290.0598,
      "mean_motion_rev_day": 15.30189059
    },
    {
      "epoch": "2026-04-09T11:55:31.227744Z",
      "apogee_km": 475.6972194772243,
      "perigee_km": 474.7825677970004,
      "latitude_deg": 5.234003726102323e-06,
      "longitude_deg": 162.68684849662938,
      "height_km": 476.05725077656314,
      "semi_major_axis_km": 6853.3768936371125,
      "eccentricity": 6.673e-05,
      "inclination_deg": 53.1597,
      "raan_deg": 179.3112,
      "arg_perigee_deg": 79.7347,
      "mean_anomaly_deg": 280.3729,
      "mean_motion_rev_day": 15.30191686
    },
    {
      "epoch": "2026-04-11T10:57:07.267104Z",
      "apogee_km": 475.8215314719382,
      "perigee_km": 474.6756454015522,
      "latitude_deg": -5.738401913933205e-05,
      "longitude_deg": 166.254916260567,
      "height_km": 476.07452140447754,
      "semi_major_axis_km": 6853.385588436745,
      "eccentricity": 8.36e-05,
      "inclination_deg": 53.1593,
      "raan_deg": 170.2108,
      "arg_perigee_deg": 82.7139,
      "mean_anomaly_deg": 277.3956,
      "mean_motion_rev_day": 15.30188774
    },
    {
      "epoch": "2026-04-12T21:26:17.880864Z",
      "apogee_km": 475.9789814285932,
      "perigee_km": 474.5466208701537,
      "latitude_deg": -3.725620531340036e-05,
      "longitude_deg": 0.8692046969377005,
      "height_km": 476.16607788267703,
      "semi_major_axis_km": 6853.399801149373,
      "eccentricity": 0.0001045,
      "inclination_deg": 53.1602,
      "raan_deg": 163.5356,
      "arg_perigee_deg": 90.3901,
      "mean_anomaly_deg": 269.7219,
      "mean_motion_rev_day": 15.30184014
    },
    {
      "epoch": "2026-04-14T12:37:41.628864Z",
      "apogee_km": 476.0113305831437,
      "perigee_km": 474.79839074464326,
      "latitude_deg": 1.2598638394160249e-05,
      "longitude_deg": 123.82651993460634,
      "height_km": 476.0154247362777,
      "semi_major_axis_km": 6853.541860663893,
      "eccentricity": 8.849e-05,
      "inclination_deg": 53.1597,
      "raan_deg": 155.9513,
      "arg_perigee_deg": 61.6362,
      "mean_anomaly_deg": 298.4728,
      "mean_motion_rev_day": 15.30136438
    },
    {
      "epoch": "2026-04-15T19:58:46.420608Z",
      "apogee_km": 477.164906044718,
      "perigee_km": 474.4384092467062,
      "latitude_deg": -2.3705336048914218e-05,
      "longitude_deg": 6.202876252639874,
      "height_km": 475.50594478563426,
      "semi_major_axis_km": 6853.938657645712,
      "eccentricity": 0.0001989,
      "inclination_deg": 53.1588,
      "raan_deg": 149.8852,
      "arg_perigee_deg": 28.852,
      "mean_anomaly_deg": 331.259,
      "mean_motion_rev_day": 15.30003563
    },
    {
      "epoch": "2026-04-16T19:29:29.893920Z",
      "apogee_km": 476.0198165988277,
      "perigee_km": 474.51480901173545,
      "latitude_deg": -2.0871252753683276e-05,
      "longitude_deg": 8.004834788308662,
      "height_km": 475.5437327172496,
      "semi_major_axis_km": 6853.404312805282,
      "eccentricity": 0.0001098,
      "inclination_deg": 53.1586,
      "raan_deg": 145.3339,
      "arg_perigee_deg": 34.2004,
      "mean_anomaly_deg": 325.9067,
      "mean_motion_rev_day": 15.30182503
    }
  ]
}